TRISAT                  
1 46280U 20061J   23291.42815856  .00026262  00000+0  96837-3 0  9998
2 46280  97.3788 356.5993 0002638  16.3473 343.7851 15.27772268172522
PICASSO-BEL             
1 46281U 20061K   23291.45224764  .00051092  00000+0  13870-2 0  9998
2 46281  97.3852   0.0878 0002158 350.3144   9.8059 15.37426279172744
DIDO 3                  
1 46284U 20061N   23291.14286693  .00016521  00000+0  71385-3 0  9990
2 46284  97.3851 354.9279 0002931  32.3981 327.7435 15.22552619172334
FLOCK 4V-14             
1 46286U 20061Q   23291.18614630  .00014916  00000+0  50966-3 0  9990
2 46286  97.3893 359.3798 0002516   3.1918 356.9338 15.30385068172654
AMICALSAT               
1 46287U 20061R   23291.43579738  .00018382  00000+0  76197-3 0  9993
2 46287  97.3857 355.8278 0002559  48.3182 311.8274 15.23938994172451
3CAT-5A                 
1 46292U 20061W   23291.17154636  .00007368  00000+0  37518-3 0  9992
2 46292  97.3850 353.0709 0002892  12.1629 347.9674 15.17082060172231
3CAT-5B                 
1 46293U 20061X   23291.12294467  .00008820  00000+0  44634-3 0  9996
2 46293  97.3853 353.2560 0002724   7.0100 353.1171 15.17245184172210
OSM-1 CICERO            
1 46294U 20061Y   23291.45570260  .00014034  00000+0  61869-3 0  9994
2 46294  97.3865 355.8053 0002154 359.6489   0.4745 15.21905142172437
TYVAK-0171              
1 46295U 20061Z   23291.45202026  .00079511  00000+0  16856-2 0  9993
2 46295  97.3925   3.4049 0000841 287.0786  73.0370 15.44787920172832
FLOCK 4V-10             
1 46296U 20061AA  23291.11732405  .00023205  00000+0  79146-3 0  9997
2 46296  97.3900 359.5423 0001285  38.0428 322.0903 15.30352219172616
FLOCK 4V-13             
1 46297U 20061AB  23290.45183794  .00019352  00000+0  66485-3 0  9995
2 46297  97.3891 358.9021 0000415  73.4734 286.6553 15.30155010172492
TTU100                  
1 46312U 20061AS  23291.50105242  .00033178  00000+0  10986-2 0  9998
2 46312  97.3908 359.9744 0001414 274.3335  85.7745 15.31237387172671
FLOCK 4V-4              
1 46314U 20061AU  23291.45606260  .00161152  00000+0  16894-2 0  9998
2 46314  97.3816   3.3164 0005401 269.1656  90.8984 15.63854096172933
LEMUR-2-SCHMIDTFALL     
1 46315U 20061AV  23291.47603643  .00148976  00000+0  11746-2 0  9993
2 46315  97.3906  11.4734 0006367 235.0624 125.0041 15.70950286173444
LEMUR-2-SQUAREJAWS      
1 46317U 20061AX  23291.22277683  .00225217  00000+0  12761-2 0  9991
2 46317  97.3893  12.5344 0005654 217.4634 142.6239 15.78421214173506
KEPLER-2 (TARS)         
1 46319U 20061AZ  23291.11728104  .00023547  00000+0  92568-3 0  9996
2 46319  97.3881 357.6336 0000852 226.7531 133.3636 15.25670225172544
NAPA-1                  
1 46320U 20061BA  23291.48310709  .00011090  00000+0  55013-3 0  9990
2 46320  97.3892 355.1901 0001332 253.5309 106.5779 15.17882890172414
FLOCK 4V-2              
1 46321U 20061BB  23291.11689542  .00115858  00000+0  23543-2 0  9994
2 46321  97.3826   3.3242 0001957 244.7862 115.3185 15.45885594172785
JILIN-1 GAOFEN 3B       
1 46454U 20065A   23291.52627846  .00011691  00000+0  55917-3 0  9990
2 46454  97.3790 336.4997 0012022 357.4443   2.6729 15.19078760170512
JILIN-1 GAOFEN 3E       
1 46457U 20065D   23291.52629496  .00011492  00000+0  55106-3 0  9995
2 46457  97.3798 336.6089 0011171  18.1057 342.0574 15.19003622170517
JILIN-1 GAOFEN 3F       
1 46458U 20065E   23291.50308968  .00011262  00000+0  53982-3 0  9997
2 46458  97.3729 335.6164 0011278   7.0588 353.0803 15.19020588170516
JILIN-1 GAOFEN 3G       
1 46459U 20065F   23291.49258767  .00012076  00000+0  57755-3 0  9993
2 46459  97.3848 337.4737 0012278  11.4851 348.6662 15.19068896170515
JILIN-1 GAOFEN 3H       
1 46460U 20065G   23291.50449183  .00011403  00000+0  54799-3 0  9999
2 46460  97.3741 335.8107 0011466   9.2585 350.8858 15.18926602170518
JILIN-1 GAOFEN 3J       
1 46462U 20065J   23291.53750915  .00012305  00000+0  58846-3 0  9991
2 46462  97.3787 336.5968 0011131   7.1801 352.9591 15.19081185170527
HAIYANG-2C              
1 46469U 20066A   23291.51196099 -.00000020  00000+0  55956-4 0  9996
2 46469  65.9941 117.0306 0013481 282.4970  77.4590 13.83371100155237
HJ-2A                   
1 46478U 20067A   23291.49503559  .00001766  00000+0  26098-3 0  9998
2 46478  97.9602  12.2724 0001487  98.2888 261.8490 14.76459339164726
HJ-2B                   
1 46479U 20067B   23291.46238488  .00001730  00000+0  25543-3 0  9997
2 46479  97.9637  12.6893 0001187  92.3011 267.8335 14.76526667164729
GONETS-M 17             
1 46486U 20068A   23291.47787212  .00000042  00000+0  23145-3 0  9992
2 46486  82.4983 232.5729 0023857 359.5581   0.5473 12.42897240138511
GONETS-M 18             
1 46487U 20068B   23291.52296297  .00000046  00000+0  26325-3 0  9994
2 46487  82.4938 232.0311 0020945 356.3770   3.7155 12.42876346138510
GONETS-M 19             
1 46488U 20068C   23291.09481656  .00000056  00000+0  33159-3 0  9996
2 46488  82.4962 232.5459 0014864  13.1959 346.9507 12.42871679138366
MEZNSAT                 
1 46489U 20068D   23291.13692025  .00019609  00000+0  10223-2 0  9996
2 46489  97.7805 243.6631 0017074  58.8280 301.4623 15.15886010167833
YARILO 1                
1 46490U 20068E   23291.14228494  .00020937  00000+0  10586-2 0  9992
2 46490  97.7812 244.1472 0016642  59.4340 300.8531 15.16955708167862
YARILO 2                
1 46491U 20068F   23291.11579457  .00018893  00000+0  96420-3 0  9998
2 46491  97.7821 243.9305 0016513  61.2634 299.0255 15.16653332167847
LACUNASAT-3             
1 46492U 20068G   23291.39293193  .00019902  00000+0  98416-3 0  9998
2 46492  97.7802 244.5599 0016309  59.0876 301.1958 15.17749745167890
DEKART                  
1 46493U 20068H   23291.46036231  .00008781  00000+0  53779-3 0  9991
2 46493  97.7841 241.7038 0018308  67.5873 292.7293 15.10298064167706
NORBI                   
1 46494U 20068J   23291.51659544  .00010459  00000+0  62065-3 0  9999
2 46494  97.7838 242.0801 0017691  67.2169 293.0927 15.11400477167739
SALSAT                  
1 46495U 20068K   23291.44455384  .00006643  00000+0  42086-3 0  9999
2 46495  97.7837 240.9376 0017015  64.8267 295.4724 15.09177694167656
ICEYE-X6                
1 46497U 20068M   23291.46767499  .00007262  00000+0  57691-3 0  9992
2 46497  97.8666 238.3634 0007299  98.2448 261.9604 15.00750503167261
LEMUR-2-SLICERS         
1 46500U 20068Q   23291.41558097  .00031601  00000+0  13339-2 0  9998
2 46500  97.7648 243.9287 0011397  72.4738 287.7742 15.23158861167859
LEMUR-2-SUSURRUS        
1 46502U 20068S   23291.41632862  .00024773  00000+0  10484-2 0  9993
2 46502  97.7665 243.9489 0011070  73.7937 286.4516 15.23127858167854
NETSAT-4                
1 46504U 20068U   23291.42760975  .00008867  00000+0  55500-3 0  9998
2 46504  97.7746 238.6218 0012884 107.4884 252.7753 15.09572241167489
NETSAT-3                
1 46505U 20068V   23290.41778777  .00009340  00000+0  58929-3 0  9991
2 46505  97.7720 237.3470 0011718 117.3972 242.8450 15.09275401167337
NETSAT-1                
1 46506U 20068W   23291.09113999  .00007976  00000+0  51193-3 0  9995
2 46506  97.7737 237.8488 0010058 123.0376 237.1819 15.08710372167424
NETSAT-2                
1 46507U 20068X   23291.09991256  .00009759  00000+0  61205-3 0  9992
2 46507  97.7733 238.0003 0009504 126.8341 233.3760 15.09499529167381
FLOCK 4V-16             
1 46527U 20061BD  23291.12986507  .00058010  00000+0  10384-2 0  9999
2 46527  97.3366   4.9057 0002784 175.7947 184.3328 15.49786453169553
FLOCK 4V-17             
1 46529U 20061BF  23291.46274458  .00045958  00000+0  85890-3 0  9995
2 46529  97.3347   5.0105 0001603 186.5660 173.5570 15.48610230169187
FLOCK 4V-20             
1 46612U 20061BJ  23291.46050297  .00015489  00000+0  48414-3 0  9998
2 46612  97.3482   1.5970 0004223 181.6553 178.4676 15.33240192167313
FLOCK 4V-23             
1 46737U 20061BM  23291.16598188  .00393515  00000+0  24522-2 0  9991
2 46737  97.3235   4.3059 0003996 217.7199 142.3786 15.75813264166323
TIANQI-6                
1 46810U 20076D   23291.14470818  .00004800  00000+0  43407-3 0  9996
2 46810  35.0017 205.8576 0014548 303.0953  56.8356 14.94818667162371
FLOCK 4V-25             
1 46812U 20061BP  23291.42604411  .00047843  00000+0  88470-3 0  9994
2 46812  97.3316   4.7528 0002252 128.0316 232.1138 15.48904471165599
FLOCK 4E'-2             
1 46820U 20077H   23291.11217705  .00591312  00000+0  24654-2 0  9990
2 46820  97.3460   0.2242 0000664 260.1508  99.9687 15.84202920165260
NUSAT-10 (CAROLINE)     
1 46832U 20079F   23291.50406949  .00881251  40728-3  12792-2 0  9997
2 46832  97.1294   7.2606 0007836 269.3521  90.6863 16.05293543165901
BEIHANGKONGSHI 1        
1 46838U 20079M   23289.70961093  .00196420  00000+0  12344-2 0  9993
2 46838  97.1377   4.5102 0002138 318.1835  41.9267 15.76164544165565
KSM1-C                  
1 46906U 20081B   23291.44233661  .00007186  00000+0  50036-3 0  9990
2 46906  36.8939 202.5442 0002420  40.9627 319.1296 15.05095417161589
KSM1-D                  
1 46907U 20081C   23291.18414904  .00006704  00000+0  46897-3 0  9998
2 46907  36.8981 204.4971 0004125  82.0825 278.0386 15.04950100161543
KSM1-A                  
1 46912U 20081H   23291.16494920  .00006996  00000+0  48770-3 0  9993
2 46912  36.8974 203.3548 0004032 185.1790 174.8911 15.05058425161550
R2                      
1 46913U 20081J   23291.43384107  .00006528  00000+0  45285-3 0  9998
2 46913  36.9017 200.3033 0008471 109.7312 250.4345 15.05257604160932
KSM1-B                  
1 46914U 20081K   23291.45497288  .00006654  00000+0  46551-3 0  9993
2 46914  36.9013 202.2529 0006746 118.4824 241.6598 15.04942211160866
CORVUS BC5              
1 46931U 20085C   23290.97315825  .00069537  00000+0  11179-2 0  9994
2 46931  97.4985  80.6923 0006731 120.1090 240.0830 15.52747779162241
